start=new Date('2022-02-05T00:00:00.000Z').valueOf();
sats=[{"MEAN_ANOMALY":"301.9949","OBJECT_TYPE":"PAYLOAD","CLASSIFICATION_TYPE":"U","EPOCH":"2022-02-04T07:49:31.677312","ARG_OF_PERICENTER":"58.1201","TIME_SYSTEM":"UTC","MEAN_MOTION_DDOT":"0.0000000000000","ECCENTRICITY":"0.00016610","EPHEMERIS_TYPE":"0","BSTAR":"0.00095894000000","RCS_SIZE":"LARGE","ELEMENT_SET_NO":"999","OBJECT_NAME":"STARLINK-2653","INCLINATION":"53.0570","CENTER_NAME":"EARTH","OBJECT_ID":"2021-044AD","REF_FRAME":"TEME","COUNTRY_CODE":"US","TLE_LINE1":"1 48665U 21044AD  22035.32606108  .00014042  00000-0  95894-3 0  9997","PERIAPSIS":"545.974","LAUNCH_DATE":"2021-05-26","PERIOD":"95.590","SITE":"AFETR","MEAN_MOTION":"15.06428998","FILE":"3291889","APOAPSIS":"548.275","RA_OF_ASC_NODE":"340.0819","REV_AT_EPOCH":"3861","TLE_LINE2":"2 48665  53.0570 340.0819 0001661  58.1201 301.9949 15.06428998 38612","DECAY_DATE":null,"NORAD_CAT_ID":"48665","SEMIMAJOR_AXIS":"6925.260","MEAN_MOTION_DOT":"0.00014042","GP_ID":"195302034","MEAN_ELEMENT_THEORY":"SGP4"},{"MEAN_MOTION_DDOT":"0.0000000000000","ECCENTRICITY":"0.00018150","EPHEMERIS_TYPE":"0","BSTAR":"0.00065175000000","ELEMENT_SET_NO":"999","RCS_SIZE":"LARGE","OBJECT_NAME":"STARLINK-2666","MEAN_ANOMALY":"300.3351","CLASSIFICATION_TYPE":"U","OBJECT_TYPE":"PAYLOAD","EPOCH":"2022-02-04T13:23:54.864096","ARG_OF_PERICENTER":"59.7818","TIME_SYSTEM":"UTC","SITE":"AFETR","FILE":"3291889","MEAN_MOTION":"15.06423995","APOAPSIS":"548.397","RA_OF_ASC_NODE":"339.0290","TLE_LINE2":"2 48666  53.0559 339.0290 0001815  59.7818 300.3351 15.06423995 38648","REV_AT_EPOCH":"3864","DECAY_DATE":null,"SEMIMAJOR_AXIS":"6925.275","NORAD_CAT_ID":"48666","MEAN_MOTION_DOT":"0.00009446","GP_ID":"195302279","MEAN_ELEMENT_THEORY":"SGP4","INCLINATION":"53.0559","CENTER_NAME":"EARTH","OBJECT_ID":"2021-044AE","REF_FRAME":"TEME","COUNTRY_CODE":"US","TLE_LINE1":"1 48666U 21044AE  22035.55827389  .00009446  00000-0  65175-3 0  9990","PERIAPSIS":"545.883","LAUNCH_DATE":"2021-05-26","PERIOD":"95.591"},{"RCS_SIZE":"LARGE","ELEMENT_SET_NO":"999","OBJECT_NAME":"STARLINK-2735","EPHEMERIS_TYPE":"0","BSTAR":"0.00055720000000","ECCENTRICITY":"0.00016200","MEAN_MOTION_DDOT":"0.0000000000000","ARG_OF_PERICENTER":"63.9150","TIME_SYSTEM":"UTC","OBJECT_TYPE":"PAYLOAD","EPOCH":"2022-02-04T13:46:30.431712","CLASSIFICATION_TYPE":"U","MEAN_ANOMALY":"296.2006","SEMIMAJOR_AXIS":"6925.283","NORAD_CAT_ID":"48667","MEAN_MOTION_DOT":"0.00008032","GP_ID":"195305114","MEAN_ELEMENT_THEORY":"SGP4","DECAY_DATE":null,"FILE":"3291965","MEAN_MOTION":"15.06421459","APOAPSIS":"548.270","RA_OF_ASC_NODE":"338.9569","TLE_LINE2":"2 48667  53.0561 338.9569 0001620  63.9150 296.2006 15.06421459 39496","REV_AT_EPOCH":"3949","SITE":"AFETR","PERIAPSIS":"546.026","LAUNCH_DATE":"2021-05-26","PERIOD":"95.591","TLE_LINE1":"1 48667U 21044AF  22035.57396333  .00008032  00000-0  55720-3 0  9998","OBJECT_ID":"2021-044AF","REF_FRAME":"TEME","COUNTRY_CODE":"US","INCLINATION":"53.0561","CENTER_NAME":"EARTH"},{"TIME_SYSTEM":"UTC","ARG_OF_PERICENTER":"71.2761","OBJECT_TYPE":"PAYLOAD","CLASSIFICATION_TYPE":"U","EPOCH":"2022-02-04T13:41:11.714208","MEAN_ANOMALY":"288.8407","RCS_SIZE":"LARGE","ELEMENT_SET_NO":"999","OBJECT_NAME":"STARLINK-2738","EPHEMERIS_TYPE":"0","BSTAR":"0.00069006000000","ECCENTRICITY":"0.00016540","MEAN_MOTION_DDOT":"0.0000000000000","PERIAPSIS":"545.992","PERIOD":"95.591","LAUNCH_DATE":"2021-05-26","TLE_LINE1":"1 48668U 21044AG  22035.57027447  .00010019  00000-0  69006-3 0  9996","REF_FRAME":"TEME","OBJECT_ID":"2021-044AG","COUNTRY_CODE":"US","CENTER_NAME":"EARTH","INCLINATION":"53.0563","MEAN_MOTION_DOT":"0.00010019","SEMIMAJOR_AXIS":"6925.273","NORAD_CAT_ID":"48668","MEAN_ELEMENT_THEORY":"SGP4","GP_ID":"195305360","DECAY_DATE":null,"APOAPSIS":"548.283","FILE":"3291965","MEAN_MOTION":"15.06424773","REV_AT_EPOCH":"3955","TLE_LINE2":"2 48668  53.0563 338.9788 0001654  71.2761 288.8407 15.06424773 39550","RA_OF_ASC_NODE":"338.9788","SITE":"AFETR"},{"CENTER_NAME":"EARTH","INCLINATION":"53.0544","COUNTRY_CODE":"US","REF_FRAME":"TEME","OBJECT_ID":"2021-044AH","TLE_LINE1":"1 48669U 21044AH  22035.56659388  .00006068  00000-0  42581-3 0  9999","PERIOD":"95.592","LAUNCH_DATE":"2021-05-26","PERIAPSIS":"546.214","SITE":"AFETR","REV_AT_EPOCH":"3864","TLE_LINE2":"2 48669  53.0544 338.9889 0001404  77.3007 282.8139 15.06408771 38640","RA_OF_ASC_NODE":"338.9889","APOAPSIS":"548.159","MEAN_MOTION":"15.06408771","FILE":"3291889","DECAY_DATE":null,"GP_ID":"195301535","MEAN_ELEMENT_THEORY":"SGP4","MEAN_MOTION_DOT":"0.00006068","SEMIMAJOR_AXIS":"6925.322","NORAD_CAT_ID":"48669","MEAN_ANOMALY":"282.8139","OBJECT_TYPE":"PAYLOAD","EPOCH":"2022-02-04T13:35:53.711232","CLASSIFICATION_TYPE":"U","TIME_SYSTEM":"UTC","ARG_OF_PERICENTER":"77.3007","MEAN_MOTION_DDOT":"0.0000000000000","ECCENTRICITY":"0.00014040","BSTAR":"0.00042581000000","EPHEMERIS_TYPE":"0","ELEMENT_SET_NO":"999","RCS_SIZE":"LARGE","OBJECT_NAME":"STARLINK-2707"},{"BSTAR":"0.00010603000000","EPHEMERIS_TYPE":"0","ELEMENT_SET_NO":"999","RCS_SIZE":"LARGE","OBJECT_NAME":"STARLINK-2763","MEAN_MOTION_DDOT":"0.0000000000000","ECCENTRICITY":"0.00015860","ARG_OF_PERICENTER":"70.0018","TIME_SYSTEM":"UTC","MEAN_ANOMALY":"290.1141","CLASSIFICATION_TYPE":"U","OBJECT_TYPE":"PAYLOAD","EPOCH":"2022-02-04T13:30:34.313760","DECAY_DATE":null,"MEAN_ELEMENT_THEORY":"SGP4","GP_ID":"195305402","MEAN_MOTION_DOT":"0.00001298","NORAD_CAT_ID":"48670","SEMIMAJOR_AXIS":"6925.326","SITE":"AFETR","REV_AT_EPOCH":"3948","TLE_LINE2":"2 48670  53.0555 339.0049 0001586  70.0018 290.1141 15.06407480 39481","RA_OF_ASC_NODE":"339.0049","APOAPSIS":"548.289","MEAN_MOTION":"15.06407480","FILE":"3291968","TLE_LINE1":"1 48670U 21044AJ  22035.56289715  .00001298  00000-0  10603-3 0  9994","PERIOD":"95.592","LAUNCH_DATE":"2021-05-26","PERIAPSIS":"546.092","CENTER_NAME":"EARTH","INCLINATION":"53.0555","COUNTRY_CODE":"US","REF_FRAME":"TEME","OBJECT_ID":"2021-044AJ"},{"DECAY_DATE":null,"MEAN_ELEMENT_THEORY":"SGP4","GP_ID":"195300536","SEMIMAJOR_AXIS":"6925.331","NORAD_CAT_ID":"48671","MEAN_MOTION_DOT":"0.00001745","SITE":"AFETR","RA_OF_ASC_NODE":"339.0327","TLE_LINE2":"2 48671  53.0575 339.0327 0001852  62.8178 297.3000 15.06405568 38640","REV_AT_EPOCH":"3864","FILE":"3291889","MEAN_MOTION":"15.06405568","APOAPSIS":"548.479","TLE_LINE1":"1 48671U 21044AK  22035.55921773  .00001745  00000-0  13603-3 0  9991","LAUNCH_DATE":"2021-05-26","PERIOD":"95.592","PERIAPSIS":"545.914","INCLINATION":"53.0575","CENTER_NAME":"EARTH","COUNTRY_CODE":"US","OBJECT_ID":"2021-044AK","REF_FRAME":"TEME","BSTAR":"0.00013603000000","EPHEMERIS_TYPE":"0","RCS_SIZE":"LARGE","ELEMENT_SET_NO":"999","OBJECT_NAME":"STARLINK-2745","MEAN_MOTION_DDOT":"0.0000000000000","ECCENTRICITY":"0.00018520","TIME_SYSTEM":"UTC","ARG_OF_PERICENTER":"62.8178","MEAN_ANOMALY":"297.3000","OBJECT_TYPE":"PAYLOAD","EPOCH":"2022-02-04T13:25:16.411872","CLASSIFICATION_TYPE":"U"},{"DECAY_DATE":null,"SEMIMAJOR_AXIS":"6925.295","NORAD_CAT_ID":"48672","MEAN_MOTION_DOT":"0.00005749","MEAN_ELEMENT_THEORY":"SGP4","GP_ID":"195305435","SITE":"AFETR","FILE":"3291970","MEAN_MOTION":"15.06417480","APOAPSIS":"548.226","RA_OF_ASC_NODE":"339.0450","TLE_LINE2":"2 48672  53.0562 339.0450 0001539  69.4909 290.6245 15.06417480 39544","REV_AT_EPOCH":"3954","TLE_LINE1":"1 48672U 21044AL  22035.55552961  .00005749  00000-0  40436-3 0  9993","PERIAPSIS":"546.094","LAUNCH_DATE":"2021-05-26","PERIOD":"95.591","INCLINATION":"53.0562","CENTER_NAME":"EARTH","OBJECT_ID":"2021-044AL","REF_FRAME":"TEME","COUNTRY_CODE":"US","EPHEMERIS_TYPE":"0","BSTAR":"0.00040436000000","RCS_SIZE":"LARGE","ELEMENT_SET_NO":"999","OBJECT_NAME":"STARLINK-2705","MEAN_MOTION_DDOT":"0.0000000000000","ECCENTRICITY":"0.00015390","ARG_OF_PERICENTER":"69.4909","TIME_SYSTEM":"UTC","MEAN_ANOMALY":"290.6245","CLASSIFICATION_TYPE":"U","OBJECT_TYPE":"PAYLOAD","EPOCH":"2022-02-04T13:19:57.758304"},{"DECAY_DATE":null,"SEMIMAJOR_AXIS":"6925.289","NORAD_CAT_ID":"48673","MEAN_MOTION_DOT":"0.00000691","MEAN_ELEMENT_THEORY":"SGP4","GP_ID":"195305229","SITE":"AFETR","FILE":"3291972","MEAN_MOTION":"15.06419510","APOAPSIS":"548.465","RA_OF_ASC_NODE":"339.0561","REV_AT_EPOCH":"3954","TLE_LINE2":"2 48673  53.0561 339.0561 0001893  71.7573 288.3622 15.06419510 39542","TLE_LINE1":"1 48673U 21044AM  22035.55181773  .00000691  00000-0  65233-4 0  9997","PERIAPSIS":"545.843","LAUNCH_DATE":"2021-05-26","PERIOD":"95.591","INCLINATION":"53.0561","CENTER_NAME":"EARTH","OBJECT_ID":"2021-044AM","REF_FRAME":"TEME","COUNTRY_CODE":"US","EPHEMERIS_TYPE":"0","BSTAR":"0.00006523300000","ELEMENT_SET_NO":"999","RCS_SIZE":"LARGE","OBJECT_NAME":"STARLINK-2711","MEAN_MOTION_DDOT":"0.0000000000000","ECCENTRICITY":"0.00018930","TIME_SYSTEM":"UTC","ARG_OF_PERICENTER":"71.7573","MEAN_ANOMALY":"288.3622","OBJECT_TYPE":"PAYLOAD","CLASSIFICATION_TYPE":"U","EPOCH":"2022-02-04T13:14:37.051872"},{"MEAN_MOTION_DDOT":"0.0000000000000","ECCENTRICITY":"0.00014460","BSTAR":"0.00025571000000","EPHEMERIS_TYPE":"0","ELEMENT_SET_NO":"999","RCS_SIZE":"LARGE","OBJECT_NAME":"STARLINK-2712","MEAN_ANOMALY":"291.9215","CLASSIFICATION_TYPE":"U","OBJECT_TYPE":"PAYLOAD","EPOCH":"2022-02-04T13:09:20.370816","ARG_OF_PERICENTER":"68.1928","TIME_SYSTEM":"UTC","SITE":"AFETR","RA_OF_ASC_NODE":"339.0750","REV_AT_EPOCH":"3954","TLE_LINE2":"2 48674  53.0567 339.0750 0001446  68.1928 291.9215 15.06416363 39548","FILE":"3291972","MEAN_MOTION":"15.06416363","APOAPSIS":"548.165","DECAY_DATE":null,"GP_ID":"195305472","MEAN_ELEMENT_THEORY":"SGP4","SEMIMAJOR_AXIS":"6925.298","NORAD_CAT_ID":"48674","MEAN_MOTION_DOT":"0.00003531","INCLINATION":"53.0567","CENTER_NAME":"EARTH","COUNTRY_CODE":"US","OBJECT_ID":"2021-044AN","REF_FRAME":"TEME","TLE_LINE1":"1 48674U 21044AN  22035.54815244  .00003531  00000-0  25571-3 0  9990","LAUNCH_DATE":"2021-05-26","PERIOD":"95.591","PERIAPSIS":"546.162"}];
